{"fetched_at":"2026-07-13T18:17:15.790Z","source":"https://celestrak.org/NORAD/elements/gp.php?NAME=SENTINEL&FORMAT=JSON","constellation":"sentinel-3","records":[{"OBJECT_NAME":"SENTINEL-3A","OBJECT_ID":"2016-011A","EPOCH":"2026-07-13T07:19:01.071264","CLASSIFICATION_TYPE":"U","MEAN_MOTION":14.26739453,"ECCENTRICITY":0.00013671,"INCLINATION":98.6238,"RA_OF_ASC_NODE":261.3119,"ARG_OF_PERICENTER":90.7843,"MEAN_ANOMALY":269.3494,"EPHEMERIS_TYPE":0,"NORAD_CAT_ID":41335,"ELEMENT_SET_NO":999,"REV_AT_EPOCH":54178,"BSTAR":0.000037974218,"MEAN_MOTION_DOT":4.8e-7,"MEAN_MOTION_DDOT":0},{"OBJECT_NAME":"SENTINEL-3B","OBJECT_ID":"2018-039A","EPOCH":"2026-07-13T04:59:20.825952","CLASSIFICATION_TYPE":"U","MEAN_MOTION":14.26735949,"ECCENTRICITY":0.00010933,"INCLINATION":98.6237,"RA_OF_ASC_NODE":261.3653,"ARG_OF_PERICENTER":119.4777,"MEAN_ANOMALY":240.6513,"EPHEMERIS_TYPE":0,"NORAD_CAT_ID":43437,"ELEMENT_SET_NO":999,"REV_AT_EPOCH":42783,"BSTAR":0.000018273141,"MEAN_MOTION_DOT":1e-8,"MEAN_MOTION_DDOT":0}]}
